[{"OBJECT_NAME":"SAOCOM 1A","OBJECT_ID":"2018-076A","EPOCH":"2026-04-22T20:16:39.967392","MEAN_MOTION":14.82151182,"ECCENTRICITY":0.0001535,"INCLINATION":97.89,"RA_OF_ASC_NODE":300.3935,"ARG_OF_PERICENTER":88.1214,"MEAN_ANOMALY":272.0175,"EPHEMERIS_TYPE":0,"CLASSIFICATION_TYPE":"U","NORAD_CAT_ID":43641,"ELEMENT_SET_NO":999,"REV_AT_EPOCH":40790,"BSTAR":2.6282e-5,"MEAN_MOTION_DOT":1.57e-6,"MEAN_MOTION_DDOT":0},{"OBJECT_NAME":"H-2A R/B","OBJECT_ID":"2018-084L","EPOCH":"2026-04-22T18:51:32.655168","MEAN_MOTION":15.4310117,"ECCENTRICITY":0.0023249,"INCLINATION":98.8659,"RA_OF_ASC_NODE":339.651,"ARG_OF_PERICENTER":227.6163,"MEAN_ANOMALY":132.3113,"EPHEMERIS_TYPE":0,"CLASSIFICATION_TYPE":"U","NORAD_CAT_ID":43682,"ELEMENT_SET_NO":999,"REV_AT_EPOCH":41257,"BSTAR":0.00031901,"MEAN_MOTION_DOT":0.00014137,"MEAN_MOTION_DDOT":0},{"OBJECT_NAME":"SAOCOM 1B","OBJECT_ID":"2020-059A","EPOCH":"2026-04-22T19:24:23.298336","MEAN_MOTION":14.82187972,"ECCENTRICITY":0.0001397,"INCLINATION":97.8892,"RA_OF_ASC_NODE":299.4518,"ARG_OF_PERICENTER":81.8675,"MEAN_ANOMALY":278.2697,"EPHEMERIS_TYPE":0,"CLASSIFICATION_TYPE":"U","NORAD_CAT_ID":46265,"ELEMENT_SET_NO":999,"REV_AT_EPOCH":30528,"BSTAR":4.5364e-5,"MEAN_MOTION_DOT":3.09e-6,"MEAN_MOTION_DDOT":0},{"OBJECT_NAME":"CSS (TIANHE)","OBJECT_ID":"2021-035A","EPOCH":"2026-04-22T18:36:22.052736","MEAN_MOTION":15.62801892,"ECCENTRICITY":0.0006659,"INCLINATION":41.4676,"RA_OF_ASC_NODE":299.4845,"ARG_OF_PERICENTER":256.0862,"MEAN_ANOMALY":103.9237,"EPHEMERIS_TYPE":0,"CLASSIFICATION_TYPE":"U","NORAD_CAT_ID":48274,"ELEMENT_SET_NO":999,"REV_AT_EPOCH":28450,"BSTAR":0.00021506,"MEAN_MOTION_DOT":0.00019657,"MEAN_MOTION_DDOT":0},{"OBJECT_NAME":"COSMOS 2550","OBJECT_ID":"2021-056A","EPOCH":"2026-04-22T19:02:18.191040","MEAN_MOTION":15.3382731,"ECCENTRICITY":0.0008391,"INCLINATION":67.1425,"RA_OF_ASC_NODE":267.4695,"ARG_OF_PERICENTER":269.4477,"MEAN_ANOMALY":90.5716,"EPHEMERIS_TYPE":0,"CLASSIFICATION_TYPE":"U","NORAD_CAT_ID":48865,"ELEMENT_SET_NO":999,"REV_AT_EPOCH":27022,"BSTAR":2.4529e-7,"MEAN_MOTION_DOT":-1.84e-6,"MEAN_MOTION_DDOT":0},{"OBJECT_NAME":"CZ-2C R/B","OBJECT_ID":"2022-058K","EPOCH":"2026-04-22T15:12:45.486720","MEAN_MOTION":15.57475499,"ECCENTRICITY":0.0039404,"INCLINATION":50.1865,"RA_OF_ASC_NODE":91.6662,"ARG_OF_PERICENTER":28.9694,"MEAN_ANOMALY":331.3453,"EPHEMERIS_TYPE":0,"CLASSIFICATION_TYPE":"U","NORAD_CAT_ID":52794,"ELEMENT_SET_NO":999,"REV_AT_EPOCH":21697,"BSTAR":0.0003975,"MEAN_MOTION_DOT":0.00030498,"MEAN_MOTION_DDOT":0},{"OBJECT_NAME":"CZ-2C R/B","OBJECT_ID":"2022-132E","EPOCH":"2026-04-22T12:29:29.199840","MEAN_MOTION":15.65889223,"ECCENTRICITY":0.0012902,"INCLINATION":97.2944,"RA_OF_ASC_NODE":117.3079,"ARG_OF_PERICENTER":287.1644,"MEAN_ANOMALY":72.8203,"EPHEMERIS_TYPE":0,"CLASSIFICATION_TYPE":"U","NORAD_CAT_ID":54039,"ELEMENT_SET_NO":999,"REV_AT_EPOCH":19722,"BSTAR":0.00031171,"MEAN_MOTION_DOT":0.00031744,"MEAN_MOTION_DDOT":0},{"OBJECT_NAME":"GSLV R/B","OBJECT_ID":"2022-138AN","EPOCH":"2026-04-22T12:10:18.890976","MEAN_MOTION":14.97011315,"ECCENTRICITY":0.0021111,"INCLINATION":87.3821,"RA_OF_ASC_NODE":151.682,"ARG_OF_PERICENTER":359.7127,"MEAN_ANOMALY":0.4089,"EPHEMERIS_TYPE":0,"CLASSIFICATION_TYPE":"U","NORAD_CAT_ID":54149,"ELEMENT_SET_NO":999,"REV_AT_EPOCH":19048,"BSTAR":0.00014046,"MEAN_MOTION_DOT":1.652e-5,"MEAN_MOTION_DDOT":0},{"OBJECT_NAME":"XRISM","OBJECT_ID":"2023-137A","EPOCH":"2026-04-22T00:28:30.434016","MEAN_MOTION":15.11964291,"ECCENTRICITY":0.0007496,"INCLINATION":31.0033,"RA_OF_ASC_NODE":3.2939,"ARG_OF_PERICENTER":116.6025,"MEAN_ANOMALY":243.5382,"EPHEMERIS_TYPE":0,"CLASSIFICATION_TYPE":"U","NORAD_CAT_ID":57800,"ELEMENT_SET_NO":999,"REV_AT_EPOCH":14435,"BSTAR":0.00022675,"MEAN_MOTION_DOT":4.085e-5,"MEAN_MOTION_DDOT":0},{"OBJECT_NAME":"ACS3","OBJECT_ID":"2024-077B","EPOCH":"2026-04-22T17:55:33.435264","MEAN_MOTION":13.91470077,"ECCENTRICITY":0.0066905,"INCLINATION":97.185,"RA_OF_ASC_NODE":43.963,"ARG_OF_PERICENTER":350.3018,"MEAN_ANOMALY":9.6851,"EPHEMERIS_TYPE":0,"CLASSIFICATION_TYPE":"U","NORAD_CAT_ID":59588,"ELEMENT_SET_NO":999,"REV_AT_EPOCH":10032,"BSTAR":0.0037433,"MEAN_MOTION_DOT":4.794e-5,"MEAN_MOTION_DDOT":0},{"OBJECT_NAME":"HTV-X1","OBJECT_ID":"2025-241A","EPOCH":"2026-04-22T14:25:26.483808","MEAN_MOTION":15.32724114,"ECCENTRICITY":0.0007819,"INCLINATION":51.6356,"RA_OF_ASC_NODE":221.2924,"ARG_OF_PERICENTER":342.6516,"MEAN_ANOMALY":17.4197,"EPHEMERIS_TYPE":0,"CLASSIFICATION_TYPE":"U","NORAD_CAT_ID":66174,"ELEMENT_SET_NO":999,"REV_AT_EPOCH":2767,"BSTAR":0.00013624,"MEAN_MOTION_DOT":4.002e-5,"MEAN_MOTION_DDOT":0},{"OBJECT_NAME":"SZ-21 MODULE","OBJECT_ID":"2025-246C","EPOCH":"2026-04-22T18:21:25.693344","MEAN_MOTION":15.71947588,"ECCENTRICITY":0.0004255,"INCLINATION":41.4735,"RA_OF_ASC_NODE":291.326,"ARG_OF_PERICENTER":310.1381,"MEAN_ANOMALY":49.9089,"EPHEMERIS_TYPE":0,"CLASSIFICATION_TYPE":"U","NORAD_CAT_ID":66515,"ELEMENT_SET_NO":999,"REV_AT_EPOCH":2500,"BSTAR":0.00022144,"MEAN_MOTION_DOT":0.00029535,"MEAN_MOTION_DDOT":0}]
