SAOCOM 1A               
1 43641U 18076A   26112.84490703  .00000157  00000+0  26282-4 0  9993
2 43641  97.8900 300.3935 0001535  88.1214 272.0175 14.82151182407901
H-2A R/B                
1 43682U 18084L   26112.78579462  .00014137  00000+0  31901-3 0  9996
2 43682  98.8659 339.6510 0023249 227.6163 132.3113 15.43101170412570
SAOCOM 1B               
1 46265U 20059A   26112.80860299  .00000309  00000+0  45364-4 0  9990
2 46265  97.8892 299.4518 0001397  81.8675 278.2697 14.82187972305289
CSS (TIANHE)            
1 48274U 21035A   26112.77525524  .00019657  00000+0  21506-3 0  9999
2 48274  41.4676 299.4845 0006659 256.0862 103.9237 15.62801892284507
COSMOS 2550             
1 48865U 21056A   26112.79326610 -.00000184  00000+0  24529-6 0  9992
2 48865  67.1425 267.4695 0008391 269.4477  90.5716 15.33827310270221
CZ-2C R/B               
1 52794U 22058K   26112.63385980  .00030498  00000+0  39750-3 0  9998
2 52794  50.1865  91.6662 0039404  28.9694 331.3453 15.57475499216975
CZ-2C R/B               
1 54039U 22132E   26112.52047685  .00031744  00000+0  31171-3 0  9994
2 54039  97.2944 117.3079 0012902 287.1644  72.8203 15.65889223197224
GSLV R/B                
1 54149U 22138AN  26112.50716309  .00001652  00000+0  14046-3 0  9993
2 54149  87.3821 151.6820 0021111 359.7127   0.4089 14.97011315190482
XRISM                   
1 57800U 23137A   26112.01979669  .00004085  00000+0  22675-3 0  9996
2 57800  31.0033   3.2939 0007496 116.6025 243.5382 15.11964291144358
ACS3                    
1 59588U 24077B   26112.74691476  .00004794  00000+0  37433-2 0  9996
2 59588  97.1850  43.9630 0066905 350.3018   9.6851 13.91470077100322
HTV-X1                  
1 66174U 25241A   26112.60100097  .00004002  00000+0  13624-3 0  9997
2 66174  51.6356 221.2924 0007819 342.6516  17.4197 15.32724114 27677
SZ-21 MODULE            
1 66515U 25246C   26112.76488071  .00029535  00000+0  22144-3 0  9994
2 66515  41.4735 291.3260 0004255 310.1381  49.9089 15.71947588 25006
